{"fetched_at":"2026-03-29T02:12:04Z","count":15717,"tles":[{"name":"STARLINK-30158","line1":"1 57438U 23105J   26087.60468226  .00001303  00000+0  56863-4 0  9993","line2":"2 57438  43.0022 153.1074 0001387 273.0501  87.0192 15.27581347148472","category":"Starlink"}]}